STARLINK-35440          
1 66345U 25253AC  26085.56178779  .00017058  00000+0  62719-3 0  9990
2 66345  43.0010 117.3191 0001030 290.7213  69.3528 15.27620150 22821
STARLINK-35482          
1 66346U 25253AD  26085.40917259  .00019727  00000+0  72417-3 0  9999
2 66346  43.0037 117.8961 0001440 245.5462 114.5240 15.27593127 22805
STARLINK-35438          
1 66347U 25253AE  26085.40017495  .00028404  00000+0  10370-2 0  9994
2 66347  43.0028 117.8263 0001498 256.5072 103.5613 15.27602380 22807
STARLINK-35849          
1 66348U 25254A   26085.61781098  .00006138  00000+0  21920-3 0  9990
2 66348  53.1590 154.0981 0001162  97.6205 262.4927 15.30199698 22725
STARLINK-35848          
1 66349U 25254B   26085.59565233  .00030956  00000+0  10535-2 0  9993
2 66349  53.1584 153.9566 0001439  93.6275 266.4891 15.30183897 21565
STARLINK-35829          
1 66350U 25254C   26085.58509685  .00001276  00000+0  55210-4 0  9997
2 66350  53.1593 153.8897 0001065  72.6365 287.4752 15.30199738 21565
STARLINK-35828          
1 66351U 25254D   26085.70939464  .00021491  00000+0  73555-3 0  9996
2 66351  53.1603 153.2460 0001148  19.6195 340.4850 15.30203357 21586
STARLINK-35850          
1 66352U 25254E   26085.56610104  .00013719  00000+0  47442-3 0  9998
2 66352  53.1566 153.7736 0001123  22.2205 337.8844 15.30203129 21569
STARLINK-35869          
1 66353U 25254F   26085.55977074  .00000120  00000+0  16187-4 0  9995
2 66353  53.1586 153.7327 0001302  61.0859 299.0272 15.30191179 21568
STARLINK-35895          
1 66354U 25254G   26085.48929410  .00026547  00000+0  90532-3 0  9995
2 66354  53.1599 154.7245 0001300  83.8545 276.2603 15.30196906 21541
STARLINK-35861          
1 66355U 25254H   26085.61359162  .00028982  00000+0  98737-3 0  9992
2 66355  53.1580 154.0700 0001083  85.9559 274.1565 15.30182317 21564
STARLINK-35851          
1 66356U 25254J   26085.61042374  .00009854  00000+0  34440-3 0  9995
2 66356  53.1579 154.0493 0000913  92.9263 267.1842 15.30196826 21563
STARLINK-35817          
1 66357U 25254K   26085.60092858  .00031998  00000+0  10883-2 0  9995
2 66357  53.1586 153.9897 0001307  87.0143 273.1007 15.30185712 21560
STARLINK-35807          
1 66358U 25254L   26085.40181332  .00022706  00000+0  77601-3 0  9999
2 66358  53.1585 154.8781 0000723  76.5115 283.5966 15.30216442 21536
STARLINK-35805          
1 66359U 25254M   26085.44708068  .00015049  00000+0  51912-3 0  9994
2 66359  53.1616 154.4488 0001346  87.8095 272.3060 15.30204289 22679
STARLINK-35823          
1 66360U 25254N   26085.56504432  .00014718  00000+0  50810-3 0  9996
2 66360  53.1596 153.7649 0000485  91.5015 268.6041 15.30196559 21560
STARLINK-35813          
1 66361U 25254P   26085.57139388  .00020360  00000+0  69776-3 0  9993
2 66361  53.1548 153.8006 0001029  75.4725 284.6390 15.30194860 21568
