[{"OBJECT_NAME":"STARLINK-35440","OBJECT_ID":"2025-253AC","EPOCH":"2026-03-26T13:28:58.465056","MEAN_MOTION":15.2762015,"ECCENTRICITY":0.000103,"INCLINATION":43.001,"RA_OF_ASC_NODE":117.3191,"ARG_OF_PERICENTER":290.7213,"MEAN_ANOMALY":69.3528,"EPHEMERIS_TYPE":0,"CLASSIFICATION_TYPE":"U","NORAD_CAT_ID":66345,"ELEMENT_SET_NO":999,"REV_AT_EPOCH":2282,"BSTAR":0.00062719,"MEAN_MOTION_DOT":0.00017058,"MEAN_MOTION_DDOT":0},{"OBJECT_NAME":"STARLINK-35482","OBJECT_ID":"2025-253AD","EPOCH":"2026-03-26T09:49:12.511776","MEAN_MOTION":15.27593127,"ECCENTRICITY":0.000144,"INCLINATION":43.0037,"RA_OF_ASC_NODE":117.8961,"ARG_OF_PERICENTER":245.5462,"MEAN_ANOMALY":114.524,"EPHEMERIS_TYPE":0,"CLASSIFICATION_TYPE":"U","NORAD_CAT_ID":66346,"ELEMENT_SET_NO":999,"REV_AT_EPOCH":2280,"BSTAR":0.00072417,"MEAN_MOTION_DOT":0.00019727,"MEAN_MOTION_DDOT":0},{"OBJECT_NAME":"STARLINK-35438","OBJECT_ID":"2025-253AE","EPOCH":"2026-03-26T09:36:15.115680","MEAN_MOTION":15.2760238,"ECCENTRICITY":0.0001498,"INCLINATION":43.0028,"RA_OF_ASC_NODE":117.8263,"ARG_OF_PERICENTER":256.5072,"MEAN_ANOMALY":103.5613,"EPHEMERIS_TYPE":0,"CLASSIFICATION_TYPE":"U","NORAD_CAT_ID":66347,"ELEMENT_SET_NO":999,"REV_AT_EPOCH":2280,"BSTAR":0.001037,"MEAN_MOTION_DOT":0.00028404,"MEAN_MOTION_DDOT":0},{"OBJECT_NAME":"STARLINK-35849","OBJECT_ID":"2025-254A","EPOCH":"2026-03-26T14:49:38.868672","MEAN_MOTION":15.30199698,"ECCENTRICITY":0.0001162,"INCLINATION":53.159,"RA_OF_ASC_NODE":154.0981,"ARG_OF_PERICENTER":97.6205,"MEAN_ANOMALY":262.4927,"EPHEMERIS_TYPE":0,"CLASSIFICATION_TYPE":"U","NORAD_CAT_ID":66348,"ELEMENT_SET_NO":999,"REV_AT_EPOCH":2272,"BSTAR":0.0002192,"MEAN_MOTION_DOT":6.138e-5,"MEAN_MOTION_DDOT":0},{"OBJECT_NAME":"STARLINK-35848","OBJECT_ID":"2025-254B","EPOCH":"2026-03-26T14:17:44.361312","MEAN_MOTION":15.30183897,"ECCENTRICITY":0.0001439,"INCLINATION":53.1584,"RA_OF_ASC_NODE":153.9566,"ARG_OF_PERICENTER":93.6275,"MEAN_ANOMALY":266.4891,"EPHEMERIS_TYPE":0,"CLASSIFICATION_TYPE":"U","NORAD_CAT_ID":66349,"ELEMENT_SET_NO":999,"REV_AT_EPOCH":2156,"BSTAR":0.0010535,"MEAN_MOTION_DOT":0.00030956,"MEAN_MOTION_DDOT":0},{"OBJECT_NAME":"STARLINK-35829","OBJECT_ID":"2025-254C","EPOCH":"2026-03-26T14:02:32.367840","MEAN_MOTION":15.30199738,"ECCENTRICITY":0.0001065,"INCLINATION":53.1593,"RA_OF_ASC_NODE":153.8897,"ARG_OF_PERICENTER":72.6365,"MEAN_ANOMALY":287.4752,"EPHEMERIS_TYPE":0,"CLASSIFICATION_TYPE":"U","NORAD_CAT_ID":66350,"ELEMENT_SET_NO":999,"REV_AT_EPOCH":2156,"BSTAR":5.521e-5,"MEAN_MOTION_DOT":1.276e-5,"MEAN_MOTION_DDOT":0},{"OBJECT_NAME":"STARLINK-35828","OBJECT_ID":"2025-254D","EPOCH":"2026-03-26T17:01:31.696896","MEAN_MOTION":15.30203357,"ECCENTRICITY":0.0001148,"INCLINATION":53.1603,"RA_OF_ASC_NODE":153.246,"ARG_OF_PERICENTER":19.6195,"MEAN_ANOMALY":340.485,"EPHEMERIS_TYPE":0,"CLASSIFICATION_TYPE":"U","NORAD_CAT_ID":66351,"ELEMENT_SET_NO":999,"REV_AT_EPOCH":2158,"BSTAR":0.00073555,"MEAN_MOTION_DOT":0.00021491,"MEAN_MOTION_DDOT":0},{"OBJECT_NAME":"STARLINK-35850","OBJECT_ID":"2025-254E","EPOCH":"2026-03-26T13:35:11.129856","MEAN_MOTION":15.30203129,"ECCENTRICITY":0.0001123,"INCLINATION":53.1566,"RA_OF_ASC_NODE":153.7736,"ARG_OF_PERICENTER":22.2205,"MEAN_ANOMALY":337.8844,"EPHEMERIS_TYPE":0,"CLASSIFICATION_TYPE":"U","NORAD_CAT_ID":66352,"ELEMENT_SET_NO":999,"REV_AT_EPOCH":2156,"BSTAR":0.00047442,"MEAN_MOTION_DOT":0.00013719,"MEAN_MOTION_DDOT":0},{"OBJECT_NAME":"STARLINK-35869","OBJECT_ID":"2025-254F","EPOCH":"2026-03-26T13:26:04.191936","MEAN_MOTION":15.30191179,"ECCENTRICITY":0.0001302,"INCLINATION":53.1586,"RA_OF_ASC_NODE":153.7327,"ARG_OF_PERICENTER":61.0859,"MEAN_ANOMALY":299.0272,"EPHEMERIS_TYPE":0,"CLASSIFICATION_TYPE":"U","NORAD_CAT_ID":66353,"ELEMENT_SET_NO":999,"REV_AT_EPOCH":2156,"BSTAR":1.6187e-5,"MEAN_MOTION_DOT":1.2e-6,"MEAN_MOTION_DDOT":0},{"OBJECT_NAME":"STARLINK-35895","OBJECT_ID":"2025-254G","EPOCH":"2026-03-26T11:44:35.010240","MEAN_MOTION":15.30196906,"ECCENTRICITY":0.00013,"INCLINATION":53.1599,"RA_OF_ASC_NODE":154.7245,"ARG_OF_PERICENTER":83.8545,"MEAN_ANOMALY":276.2603,"EPHEMERIS_TYPE":0,"CLASSIFICATION_TYPE":"U","NORAD_CAT_ID":66354,"ELEMENT_SET_NO":999,"REV_AT_EPOCH":2154,"BSTAR":0.00090532,"MEAN_MOTION_DOT":0.00026547,"MEAN_MOTION_DDOT":0},{"OBJECT_NAME":"STARLINK-35861","OBJECT_ID":"2025-254H","EPOCH":"2026-03-26T14:43:34.315968","MEAN_MOTION":15.30182317,"ECCENTRICITY":0.0001083,"INCLINATION":53.158,"RA_OF_ASC_NODE":154.07,"ARG_OF_PERICENTER":85.9559,"MEAN_ANOMALY":274.1565,"EPHEMERIS_TYPE":0,"CLASSIFICATION_TYPE":"U","NORAD_CAT_ID":66355,"ELEMENT_SET_NO":999,"REV_AT_EPOCH":2156,"BSTAR":0.00098737,"MEAN_MOTION_DOT":0.00028982,"MEAN_MOTION_DDOT":0},{"OBJECT_NAME":"STARLINK-35851","OBJECT_ID":"2025-254J","EPOCH":"2026-03-26T14:39:00.611136","MEAN_MOTION":15.30196826,"ECCENTRICITY":9.13e-5,"INCLINATION":53.1579,"RA_OF_ASC_NODE":154.0493,"ARG_OF_PERICENTER":92.9263,"MEAN_ANOMALY":267.1842,"EPHEMERIS_TYPE":0,"CLASSIFICATION_TYPE":"U","NORAD_CAT_ID":66356,"ELEMENT_SET_NO":999,"REV_AT_EPOCH":2156,"BSTAR":0.0003444,"MEAN_MOTION_DOT":9.854e-5,"MEAN_MOTION_DDOT":0},{"OBJECT_NAME":"STARLINK-35817","OBJECT_ID":"2025-254K","EPOCH":"2026-03-26T14:25:20.229312","MEAN_MOTION":15.30185712,"ECCENTRICITY":0.0001307,"INCLINATION":53.1586,"RA_OF_ASC_NODE":153.9897,"ARG_OF_PERICENTER":87.0143,"MEAN_ANOMALY":273.1007,"EPHEMERIS_TYPE":0,"CLASSIFICATION_TYPE":"U","NORAD_CAT_ID":66357,"ELEMENT_SET_NO":999,"REV_AT_EPOCH":2156,"BSTAR":0.0010883,"MEAN_MOTION_DOT":0.00031998,"MEAN_MOTION_DDOT":0},{"OBJECT_NAME":"STARLINK-35807","OBJECT_ID":"2025-254L","EPOCH":"2026-03-26T09:38:36.670848","MEAN_MOTION":15.30216442,"ECCENTRICITY":7.23e-5,"INCLINATION":53.1585,"RA_OF_ASC_NODE":154.8781,"ARG_OF_PERICENTER":76.5115,"MEAN_ANOMALY":283.5966,"EPHEMERIS_TYPE":0,"CLASSIFICATION_TYPE":"U","NORAD_CAT_ID":66358,"ELEMENT_SET_NO":999,"REV_AT_EPOCH":2153,"BSTAR":0.00077601,"MEAN_MOTION_DOT":0.00022706,"MEAN_MOTION_DDOT":0},{"OBJECT_NAME":"STARLINK-35805","OBJECT_ID":"2025-254M","EPOCH":"2026-03-26T10:43:47.770752","MEAN_MOTION":15.30204289,"ECCENTRICITY":0.0001346,"INCLINATION":53.1616,"RA_OF_ASC_NODE":154.4488,"ARG_OF_PERICENTER":87.8095,"MEAN_ANOMALY":272.306,"EPHEMERIS_TYPE":0,"CLASSIFICATION_TYPE":"U","NORAD_CAT_ID":66359,"ELEMENT_SET_NO":999,"REV_AT_EPOCH":2267,"BSTAR":0.00051912,"MEAN_MOTION_DOT":0.00015049,"MEAN_MOTION_DDOT":0},{"OBJECT_NAME":"STARLINK-35823","OBJECT_ID":"2025-254N","EPOCH":"2026-03-26T13:33:39.829248","MEAN_MOTION":15.30196559,"ECCENTRICITY":4.85e-5,"INCLINATION":53.1596,"RA_OF_ASC_NODE":153.7649,"ARG_OF_PERICENTER":91.5015,"MEAN_ANOMALY":268.6041,"EPHEMERIS_TYPE":0,"CLASSIFICATION_TYPE":"U","NORAD_CAT_ID":66360,"ELEMENT_SET_NO":999,"REV_AT_EPOCH":2156,"BSTAR":0.0005081,"MEAN_MOTION_DOT":0.00014718,"MEAN_MOTION_DDOT":0},{"OBJECT_NAME":"STARLINK-35813","OBJECT_ID":"2025-254P","EPOCH":"2026-03-26T13:42:48.431232","MEAN_MOTION":15.3019486,"ECCENTRICITY":0.0001029,"INCLINATION":53.1548,"RA_OF_ASC_NODE":153.8006,"ARG_OF_PERICENTER":75.4725,"MEAN_ANOMALY":284.639,"EPHEMERIS_TYPE":0,"CLASSIFICATION_TYPE":"U","NORAD_CAT_ID":66361,"ELEMENT_SET_NO":999,"REV_AT_EPOCH":2156,"BSTAR":0.00069776,"MEAN_MOTION_DOT":0.0002036,"MEAN_MOTION_DDOT":0}]
